ONEWEB-0332             
1 49279U 21090A   23243.10039761 -.00000081  00000+0 -25230-3 0  9999
2 49279  87.9022 132.9929 0002161  91.2012 268.9366 13.14504175 93431
ONEWEB-0347             
1 49280U 21090B   23242.69270482  .00000121  00000+0  26557-3 0  9997
2 49280  87.9265 117.7671 0001831  97.2327 262.9015 13.20771795 96209
ONEWEB-0349             
1 49281U 21090C   23242.95152251 -.00000056  00000+0 -16943-3 0  9997
2 49281  87.9198 117.7738 0003083  80.5202 279.6279 13.20773100 95025
ONEWEB-0353             
1 49282U 21090D   23242.93971267 -.00000021  00000+0 -89926-4 0  9996
2 49282  87.9030 133.0032 0001894  88.4130 271.7217 13.14504809 93411
ONEWEB-0356             
1 49283U 21090E   23242.94941168  .00000033  00000+0  49067-4 0  9998
2 49283  87.9200 117.7814 0000869  62.8471 297.2751 13.20775119 95029
ONEWEB-0358             
1 49284U 21090F   23242.90312368  .00000053  00000+0  99082-4 0  9993
2 49284  87.9197 117.7642 0001661  66.9630 293.1679 13.20769432 95741
ONEWEB-0359             
1 49285U 21090G   23242.90102000  .00000142  00000+0  31799-3 0  9993
2 49285  87.9196 117.8011 0002167  67.7868 292.3495 13.20770133 95721
ONEWEB-0360             
1 49286U 21090H   23243.04201293  .00000056  00000+0  10532-3 0  9990
2 49286  87.9201 117.7692 0001915  75.4794 284.6552 13.20769962 95059
